ONEWEB-0414             
1 50491U 21132Y   24206.72162537 -.00000014  00000+0 -68844-4 0  9995
2 50491  87.9139 113.3098 0002227  75.4266 284.7113 13.18684658130365
ONEWEB-0418             
1 50493U 21132AA  24207.19414580  .00000108  00000+0  24117-3 0  9993
2 50493  87.9140 113.2226 0002184  89.3226 270.8157 13.18685911131743
ONEWEB-0419             
1 50494U 21132AB  24207.21165300  .00000017  00000+0  11450-4 0  9996
2 50494  87.9138 113.2352 0001645  87.4833 272.6488 13.18687869131678
ONEWEB-0424             
1 50497U 21132AE  24206.75165367  .00000074  00000+0  15600-3 0  9993
2 50497  87.9141 113.3085 0001511  88.5331 271.5974 13.18687908130385
ONEWEB-0426             
1 50498U 21132AF  24207.16898257  .00000113  00000+0  25503-3 0  9998
2 50498  87.9138 113.2409 0002521  84.9124 275.2296 13.18684838131673
